[{"OBJECT_NAME":"STARLINK-32537","OBJECT_ID":"2024-207M","EPOCH":"2026-03-09T01:55:55.651872","MEAN_MOTION":15.27569636,"ECCENTRICITY":0.00015585,"INCLINATION":42.9996,"RA_OF_ASC_NODE":289.0978,"ARG_OF_PERICENTER":273.0497,"MEAN_ANOMALY":87.0176,"EPHEMERIS_TYPE":0,"CLASSIFICATION_TYPE":"U","NORAD_CAT_ID":61923,"ELEMENT_SET_NO":999,"REV_AT_EPOCH":7458,"BSTAR":0.0010489138,"MEAN_MOTION_DOT":0.00028705,"MEAN_MOTION_DDOT":0},{"OBJECT_NAME":"TEVEL2-8","OBJECT_ID":"2025-052AF","EPOCH":"2026-03-09T16:02:08.542752","MEAN_MOTION":15.28392908,"ECCENTRICITY":0.0008031,"INCLINATION":97.4055,"RA_OF_ASC_NODE":324.2923,"ARG_OF_PERICENTER":124.9191,"MEAN_ANOMALY":235.2804,"EPHEMERIS_TYPE":0,"CLASSIFICATION_TYPE":"U","NORAD_CAT_ID":63239,"ELEMENT_SET_NO":999,"REV_AT_EPOCH":5480,"BSTAR":0.00069303947,"MEAN_MOTION_DOT":0.0001913,"MEAN_MOTION_DDOT":0}]
